[{"OBJECT_NAME":"STARLINK-6193","OBJECT_ID":"2023-083AE","EPOCH":"2026-03-09T22:00:01.999584","MEAN_MOTION":15.0714754,"ECCENTRICITY":0.00021191,"INCLINATION":43.0012,"RA_OF_ASC_NODE":67.6359,"ARG_OF_PERICENTER":267.5644,"MEAN_ANOMALY":84.7717,"EPHEMERIS_TYPE":0,"CLASSIFICATION_TYPE":"U","NORAD_CAT_ID":56904,"ELEMENT_SET_NO":999,"REV_AT_EPOCH":577,"BSTAR":0.0046495189,"MEAN_MOTION_DOT":0.00071596,"MEAN_MOTION_DDOT":0},{"OBJECT_NAME":"CZ-6A DEB","OBJECT_ID":"2024-140FT","EPOCH":"2026-03-09T20:21:11.789568","MEAN_MOTION":14.71915772,"ECCENTRICITY":0.01746518,"INCLINATION":89.0601,"RA_OF_ASC_NODE":285.0345,"ARG_OF_PERICENTER":174.2343,"MEAN_ANOMALY":186.0946,"EPHEMERIS_TYPE":0,"CLASSIFICATION_TYPE":"U","NORAD_CAT_ID":60792,"ELEMENT_SET_NO":999,"REV_AT_EPOCH":8444,"BSTAR":0.00029453778,"MEAN_MOTION_DOT":2.37e-5,"MEAN_MOTION_DDOT":0}]
